[
    {
        "OBJECT_NAME": "SL-16 R/B",
        "OBJECT_ID": "1990-046B",
        "EPOCH": "2026-04-16T14:06:37.806048",
        "MEAN_MOTION": 14.15016363,
        "ECCENTRICITY": 0.0016457,
        "INCLINATION": 70.9993,
        "RA_OF_ASC_NODE": 218.3163,
        "ARG_OF_PERICENTER": 250.1285,
        "MEAN_ANOMALY": 109.8065,
        "EPHEMERIS_TYPE": 0,
        "CLASSIFICATION_TYPE": "U",
        "NORAD_CAT_ID": 20625,
        "ELEMENT_SET_NO": 999,
        "REV_AT_EPOCH": 85375,
        "BSTAR": -0.00011494,
        "MEAN_MOTION_DOT": -2.71e-06,
        "MEAN_MOTION_DDOT": 0
    },
    {
        "OBJECT_NAME": "COSMOS 2084",
        "OBJECT_ID": "1990-055A",
        "EPOCH": "2026-04-16T13:48:32.191776",
        "MEAN_MOTION": 15.05870785,
        "ECCENTRICITY": 0.0011079,
        "INCLINATION": 62.7891,
        "RA_OF_ASC_NODE": 206.3378,
        "ARG_OF_PERICENTER": 204.6063,
        "MEAN_ANOMALY": 155.451,
        "EPHEMERIS_TYPE": 0,
        "CLASSIFICATION_TYPE": "U",
        "NORAD_CAT_ID": 20663,
        "ELEMENT_SET_NO": 999,
        "REV_AT_EPOCH": 94202,
        "BSTAR": 0.00010316,
        "MEAN_MOTION_DOT": 1.304e-05,
        "MEAN_MOTION_DDOT": 0
    },
    {
        "OBJECT_NAME": "SL-6 R/B(2)",
        "OBJECT_ID": "1990-055D",
        "EPOCH": "2026-04-16T17:50:23.997984",
        "MEAN_MOTION": 15.03763725,
        "ECCENTRICITY": 0.0031005,
        "INCLINATION": 62.7805,
        "RA_OF_ASC_NODE": 124.4246,
        "ARG_OF_PERICENTER": 355.1882,
        "MEAN_ANOMALY": 4.8914,
        "EPHEMERIS_TYPE": 0,
        "CLASSIFICATION_TYPE": "U",
        "NORAD_CAT_ID": 20666,
        "ELEMENT_SET_NO": 999,
        "REV_AT_EPOCH": 94391,
        "BSTAR": 8.4576e-05,
        "MEAN_MOTION_DOT": 9.73e-06,
        "MEAN_MOTION_DDOT": 0
    },
    {
        "OBJECT_NAME": "SL-8 R/B",
        "OBJECT_ID": "1990-078B",
        "EPOCH": "2026-04-16T09:26:28.662720",
        "MEAN_MOTION": 14.90087132,
        "ECCENTRICITY": 0.0356649,
        "INCLINATION": 82.9057,
        "RA_OF_ASC_NODE": 217.3722,
        "ARG_OF_PERICENTER": 246.6353,
        "MEAN_ANOMALY": 109.6982,
        "EPHEMERIS_TYPE": 0,
        "CLASSIFICATION_TYPE": "U",
        "NORAD_CAT_ID": 20775,
        "ELEMENT_SET_NO": 999,
        "REV_AT_EPOCH": 81491,
        "BSTAR": 0.0002777,
        "MEAN_MOTION_DOT": 9.424e-05,
        "MEAN_MOTION_DDOT": 0
    },
    {
        "OBJECT_NAME": "SL-8 R/B",
        "OBJECT_ID": "1991-006B",
        "EPOCH": "2026-04-16T20:31:20.068032",
        "MEAN_MOTION": 13.77501666,
        "ECCENTRICITY": 0.0020981,
        "INCLINATION": 82.9412,
        "RA_OF_ASC_NODE": 141.6657,
        "ARG_OF_PERICENTER": 289.4543,
        "MEAN_ANOMALY": 250.5477,
        "EPHEMERIS_TYPE": 0,
        "CLASSIFICATION_TYPE": "U",
        "NORAD_CAT_ID": 21088,
        "ELEMENT_SET_NO": 999,
        "REV_AT_EPOCH": 76932,
        "BSTAR": 0.00013216,
        "MEAN_MOTION_DOT": 1.47e-06,
        "MEAN_MOTION_DDOT": 0
    },
    {
        "OBJECT_NAME": "OKEAN-3",
        "OBJECT_ID": "1991-039A",
        "EPOCH": "2026-04-16T13:53:11.148000",
        "MEAN_MOTION": 15.05017078,
        "ECCENTRICITY": 0.0013901,
        "INCLINATION": 82.5137,
        "RA_OF_ASC_NODE": 300.1219,
        "ARG_OF_PERICENTER": 195.4439,
        "MEAN_ANOMALY": 164.6366,
        "EPHEMERIS_TYPE": 0,
        "CLASSIFICATION_TYPE": "U",
        "NORAD_CAT_ID": 21397,
        "ELEMENT_SET_NO": 999,
        "REV_AT_EPOCH": 87073,
        "BSTAR": 8.1185e-05,
        "MEAN_MOTION_DOT": 1.183e-05,
        "MEAN_MOTION_DDOT": 0
    },
    {
        "OBJECT_NAME": "COSMOS 2151",
        "OBJECT_ID": "1991-042A",
        "EPOCH": "2026-04-16T20:03:24.351264",
        "MEAN_MOTION": 15.00269407,
        "ECCENTRICITY": 0.0010756,
        "INCLINATION": 82.4979,
        "RA_OF_ASC_NODE": 46.8721,
        "ARG_OF_PERICENTER": 294.689,
        "MEAN_ANOMALY": 65.3214,
        "EPHEMERIS_TYPE": 0,
        "CLASSIFICATION_TYPE": "U",
        "NORAD_CAT_ID": 21422,
        "ELEMENT_SET_NO": 999,
        "REV_AT_EPOCH": 86891,
        "BSTAR": 9.8298e-05,
        "MEAN_MOTION_DOT": 1.258e-05,
        "MEAN_MOTION_DDOT": 0
    },
    {
        "OBJECT_NAME": "SL-14 R/B",
        "OBJECT_ID": "1991-042B",
        "EPOCH": "2026-04-16T13:43:16.912128",
        "MEAN_MOTION": 14.81865585,
        "ECCENTRICITY": 0.0018473,
        "INCLINATION": 82.4956,
        "RA_OF_ASC_NODE": 184.6711,
        "ARG_OF_PERICENTER": 114.8613,
        "MEAN_ANOMALY": 245.4524,
        "EPHEMERIS_TYPE": 0,
        "CLASSIFICATION_TYPE": "U",
        "NORAD_CAT_ID": 21423,
        "ELEMENT_SET_NO": 999,
        "REV_AT_EPOCH": 85868,
        "BSTAR": 2.6189e-05,
        "MEAN_MOTION_DOT": 2.31e-06,
        "MEAN_MOTION_DDOT": 0
    },
    {
        "OBJECT_NAME": "ERS-1",
        "OBJECT_ID": "1991-050A",
        "EPOCH": "2026-04-16T18:56:05.616960",
        "MEAN_MOTION": 14.39478,
        "ECCENTRICITY": 0.0033145,
        "INCLINATION": 98.7846,
        "RA_OF_ASC_NODE": 125.9766,
        "ARG_OF_PERICENTER": 89.4871,
        "MEAN_ANOMALY": 271.0114,
        "EPHEMERIS_TYPE": 0,
        "CLASSIFICATION_TYPE": "U",
        "NORAD_CAT_ID": 21574,
        "ELEMENT_SET_NO": 999,
        "REV_AT_EPOCH": 82121,
        "BSTAR": 6.779e-05,
        "MEAN_MOTION_DOT": 1.66e-06,
        "MEAN_MOTION_DDOT": 0
    },
    {
        "OBJECT_NAME": "ARIANE 40 R/B",
        "OBJECT_ID": "1991-050F",
        "EPOCH": "2026-04-16T17:59:00.548160",
        "MEAN_MOTION": 14.42920647,
        "ECCENTRICITY": 0.0002302,
        "INCLINATION": 98.1938,
        "RA_OF_ASC_NODE": 157.5427,
        "ARG_OF_PERICENTER": 342.2389,
        "MEAN_ANOMALY": 17.8721,
        "EPHEMERIS_TYPE": 0,
        "CLASSIFICATION_TYPE": "U",
        "NORAD_CAT_ID": 21610,
        "ELEMENT_SET_NO": 999,
        "REV_AT_EPOCH": 82448,
        "BSTAR": 5.7932e-05,
        "MEAN_MOTION_DOT": 1.52e-06,
        "MEAN_MOTION_DDOT": 0
    },
    {
        "OBJECT_NAME": "INTERCOSMOS 25",
        "OBJECT_ID": "1991-086A",
        "EPOCH": "2026-04-16T13:03:34.496928",
        "MEAN_MOTION": 12.12116763,
        "ECCENTRICITY": 0.1485888,
        "INCLINATION": 82.5991,
        "RA_OF_ASC_NODE": 287.1151,
        "ARG_OF_PERICENTER": 35.3579,
        "MEAN_ANOMALY": 333.7429,
        "EPHEMERIS_TYPE": 0,
        "CLASSIFICATION_TYPE": "U",
        "NORAD_CAT_ID": 21819,
        "ELEMENT_SET_NO": 999,
        "REV_AT_EPOCH": 50127,
        "BSTAR": 0.00015909,
        "MEAN_MOTION_DOT": 8.37e-06,
        "MEAN_MOTION_DDOT": 0
    },
    {
        "OBJECT_NAME": "SL-8 R/B",
        "OBJECT_ID": "1992-008B",
        "EPOCH": "2026-04-16T16:04:45.012288",
        "MEAN_MOTION": 13.75970147,
        "ECCENTRICITY": 0.0035197,
        "INCLINATION": 82.9264,
        "RA_OF_ASC_NODE": 239.5217,
        "ARG_OF_PERICENTER": 30.6728,
        "MEAN_ANOMALY": 340.3263,
        "EPHEMERIS_TYPE": 0,
        "CLASSIFICATION_TYPE": "U",
        "NORAD_CAT_ID": 21876,
        "ELEMENT_SET_NO": 999,
        "REV_AT_EPOCH": 71464,
        "BSTAR": -1.0373e-05,
        "MEAN_MOTION_DOT": 5e-08,
        "MEAN_MOTION_DDOT": 0
    },
    {
        "OBJECT_NAME": "SL-8 R/B",
        "OBJECT_ID": "1992-020B",
        "EPOCH": "2026-04-16T19:55:29.203968",
        "MEAN_MOTION": 13.75549571,
        "ECCENTRICITY": 0.0028804,
        "INCLINATION": 82.9275,
        "RA_OF_ASC_NODE": 125.4363,
        "ARG_OF_PERICENTER": 188.5272,
        "MEAN_ANOMALY": 344.6533,
        "EPHEMERIS_TYPE": 0,
        "CLASSIFICATION_TYPE": "U",
        "NORAD_CAT_ID": 21938,
        "ELEMENT_SET_NO": 999,
        "REV_AT_EPOCH": 70637,
        "BSTAR": -5.5927e-05,
        "MEAN_MOTION_DOT": -3.9e-07,
        "MEAN_MOTION_DDOT": 0
    },
    {
        "OBJECT_NAME": "USA 81",
        "OBJECT_ID": "1992-023A",
        "EPOCH": "2026-04-16T17:32:46.583808",
        "MEAN_MOTION": 14.32380144,
        "ECCENTRICITY": 0.0001224,
        "INCLINATION": 85.0035,
        "RA_OF_ASC_NODE": 109.4816,
        "ARG_OF_PERICENTER": 87.0932,
        "MEAN_ANOMALY": 273.0401,
        "EPHEMERIS_TYPE": 0,
        "CLASSIFICATION_TYPE": "U",
        "NORAD_CAT_ID": 21949,
        "ELEMENT_SET_NO": 999,
        "REV_AT_EPOCH": 10023,
        "BSTAR": 3.5112e-05,
        "MEAN_MOTION_DOT": 1.15e-06,
        "MEAN_MOTION_DDOT": 0
    },
    {
        "OBJECT_NAME": "COSMOS 2219",
        "OBJECT_ID": "1992-076A",
        "EPOCH": "2026-04-16T18:58:04.078272",
        "MEAN_MOTION": 14.14089628,
        "ECCENTRICITY": 0.0017272,
        "INCLINATION": 71.0585,
        "RA_OF_ASC_NODE": 298.422,
        "ARG_OF_PERICENTER": 147.3712,
        "MEAN_ANOMALY": 212.8482,
        "EPHEMERIS_TYPE": 0,
        "CLASSIFICATION_TYPE": "U",
        "NORAD_CAT_ID": 22219,
        "ELEMENT_SET_NO": 999,
        "REV_AT_EPOCH": 72376,
        "BSTAR": 0.00011868,
        "MEAN_MOTION_DOT": 1.79e-06,
        "MEAN_MOTION_DDOT": 0
    },
    {
        "OBJECT_NAME": "SL-16 R/B",
        "OBJECT_ID": "1992-076B",
        "EPOCH": "2026-04-16T18:31:09.593184",
        "MEAN_MOTION": 14.16866797,
        "ECCENTRICITY": 0.0011586,
        "INCLINATION": 70.9979,
        "RA_OF_ASC_NODE": 108.1556,
        "ARG_OF_PERICENTER": 27.6197,
        "MEAN_ANOMALY": 145.1443,
        "EPHEMERIS_TYPE": 0,
        "CLASSIFICATION_TYPE": "U",
        "NORAD_CAT_ID": 22220,
        "ELEMENT_SET_NO": 999,
        "REV_AT_EPOCH": 72722,
        "BSTAR": 6.6445e-05,
        "MEAN_MOTION_DOT": 8.5e-07,
        "MEAN_MOTION_DDOT": 0
    }
]